[Satellite]
VERSION=1.1
NAME=CARTOSAT-2A
NICKNAME=CARTOSAT-2A
TLE1=1 32783U 08021A   17186.23297772  .00000073  00000-0  16974-4 0  9997
TLE2=2 32783  97.9256 247.0855 0011816 258.4562 101.5314 14.78666011495804
